     2.100          NAVIGATION                              RINEX VERSION / TYPE
fic2rin                                 05/15/2017 00:06:17 PGM / RUN BY / DATE
                                                            END OF HEADER
20 17  5 14 16  0  0.0  .472201500088D-03  .147792889038D-11  .000000000000D+00
     .310000000000D+02  .119062500000D+02  .545629870531D-08 -.992909627289D+00
     .806525349617D-06  .433974165935D-02  .605173408985D-05  .515366779518D+04
     .576000000000D+05 -.447034835815D-07 -.131892154153D+01  .447034835815D-07
     .926505135103D+00  .246000000000D+03  .159541355444D+01 -.850749722855D-08
     .334656796942D-09  .100000000000D+01  .194900000000D+04  .000000000000D+00
     .240000000000D+01  .000000000000D+00 -.838190317154D-08  .310000000000D+02
     .504060000000D+05  .400000000000D+01
21 17  5 14 16  0  0.0 -.507031101733D-03  .216004991671D-11  .000000000000D+00
     .690000000000D+02 -.382187500000D+02  .458090509880D-08  .227015391426D+01
    -.212155282497D-05  .239943622146D-01  .936537981033D-05  .515368655014D+04
     .576000000000D+05  .355765223503D-06 -.230841520244D+01 -.201165676117D-06
     .939580154153D+00  .181718750000D+03 -.167386178450D+01 -.760317384557D-08
     .273582824394D-09  .100000000000D+01  .194900000000D+04  .000000000000D+00
     .240000000000D+01  .000000000000D+00 -.977888703346D-08  .690000000000D+02
     .504060000000D+05  .400000000000D+01
22 17  5 14 16  0  0.0  .102426856756D-04 -.121644916362D-10  .000000000000D+00
     .101000000000D+03  .132187500000D+02  .565166398592D-08 -.600307626297D+00
     .806525349617D-06  .753539823927D-02  .552460551262D-05  .515381812859D+04
     .576000000000D+05 -.447034835815D-07 -.126765333752D+01  .143423676491D-06
     .923202381028D+00  .255843750000D+03 -.173783578459D+01 -.866607526253D-08
     .307869966877D-09  .100000000000D+01  .194900000000D+04  .000000000000D+00
     .240000000000D+01  .000000000000D+00 -.176951289177D-07  .101000000000D+03
     .504060000000D+05  .400000000000D+01
23 17  5 14 16  0  0.0 -.211748760194D-03 -.682121026330D-12  .000000000000D+00
     .370000000000D+02  .140625000000D+01  .490556147918D-08 -.140893776412D+01
    -.558793544769D-08  .116681732470D-01  .800192356110D-05  .515374655533D+04
     .576000000000D+05  .230967998505D-06 -.183860999806D+00 -.335276126862D-07
     .944796116882D+00  .209656250000D+03 -.246672084766D+01 -.802890586473D-08
    -.245367363393D-09  .100000000000D+01  .194900000000D+04  .000000000000D+00
     .240000000000D+01  .000000000000D+00 -.204890966415D-07  .370000000000D+02
     .504060000000D+05  .400000000000D+01
24 17  5 14 16  0  0.0 -.348016619682D-04 -.568434188608D-12  .000000000000D+00
     .500000000000D+02  .944062500000D+02  .475912680816D-08 -.202500490071D+01
     .477954745293D-05  .565462734085D-02  .906549394131D-05  .515369869041D+04
     .576000000000D+05  .633299350739D-07  .839135988171D+00 -.689178705215D-07
     .945674553838D+00  .196250000000D+03  .487196403766D+00 -.808605110220D-08
     .114290474943D-09  .100000000000D+01  .194900000000D+04  .000000000000D+00
     .340000000000D+01  .000000000000D+00  .279396772385D-08  .500000000000D+02
     .504060000000D+05  .400000000000D+01
25 17  5 14 16  0  0.0 -.387100968510D-03 -.659383658785D-11  .000000000000D+00
     .105000000000D+03  .303125000000D+02  .438875423780D-08  .230208858353D+01
     .137649476528D-05  .651976768859D-02  .252574682236D-05  .515359197044D+04
     .576000000000D+05 -.115483999252D-06  .192170378592D+01 -.875443220139D-07
     .976979169161D+00  .338250000000D+03  .807660751249D+00 -.810926635492D-08
     .207151485834D-10  .100000000000D+01  .194900000000D+04  .000000000000D+00
     .340000000000D+01  .000000000000D+00  .558793544769D-08  .105000000000D+03
     .504060000000D+05  .400000000000D+01
26 17  5 14 16  0  0.0 -.504395924509D-03  .420641299570D-11  .000000000000D+00
     .860000000000D+02  .277187500000D+02  .487698886045D-08  .168600135375D+01
     .170059502125D-05  .183181616012D-02  .217556953430D-05  .515370251656D+04
     .576000000000D+05  .782310962677D-07  .190650225891D+01  .912696123123D-07
     .958757798876D+00  .336125000000D+03  .959439461648D-01 -.846856703552D-08
    -.928610108910D-11  .100000000000D+01  .194900000000D+04  .000000000000D+00
     .240000000000D+01  .000000000000D+00  .745058059692D-08  .860000000000D+02
     .504060000000D+05  .400000000000D+01
27 17  5 14 16  0  0.0  .257564708591D-03  .659383658785D-11  .000000000000D+00
     .770000000000D+02 -.998125000000D+02  .415695886831D-08 -.351252014371D-01
    -.531226396561D-05  .479561241809D-02  .613182783127D-05  .515366524124D+04
     .576000000000D+05  .353902578354D-07  .296148364074D+01  .428408384323D-07
     .975069281332D+00  .264656250000D+03  .342731621062D+00 -.800961934708D-08
    -.331085219600D-09  .100000000000D+01  .194900000000D+04  .000000000000D+00
     .240000000000D+01  .000000000000D+00  .139698386192D-08  .770000000000D+02
     .504060000000D+05  .400000000000D+01
28 17  5 14 16  0  0.0  .612743198872D-03  .295585778076D-11  .000000000000D+00
     .830000000000D+02  .169062500000D+02  .436053877680D-08  .794797833377D+00
     .696629285812D-06  .197316247504D-01  .251643359661D-05  .515364616776D+04
     .576000000000D+05 -.298023223877D-06  .200030910120D+01 -.132247805595D-06
     .988336659480D+00  .352875000000D+03 -.156994996578D+01 -.852106922245D-08
    -.728601777760D-10  .100000000000D+01  .194900000000D+04  .000000000000D+00
     .240000000000D+01  .000000000000D+00 -.111758708954D-07  .830000000000D+02
     .504060000000D+05  .400000000000D+01
29 17  5 14 16  0  0.0  .604363158345D-03 -.329691829393D-11  .000000000000D+00
     .710000000000D+02 -.968750000000D+02  .391373445132D-08  .171324940111D+01
    -.507384538651D-05  .701082870364D-03  .676698982716D-05  .515363474655D+04
     .576000000000D+05 -.167638063431D-07  .302348229034D+01 -.391155481339D-07
     .981304093357D+00  .260687500000D+03  .294508404966D+00 -.778282418587D-08
    -.279297348141D-09  .100000000000D+01  .194900000000D+04  .000000000000D+00
     .240000000000D+01  .000000000000D+00 -.977888703346D-08  .710000000000D+02
     .504060000000D+05  .400000000000D+01
30 17  5 14 16  0  0.0  .156878959388D-03 -.909494701773D-12  .000000000000D+00
     .960000000000D+02  .113781250000D+03  .471555356459D-08 -.283575508186D+01
     .594183802605D-05  .276723015122D-02  .857375562191D-05  .515368803215D+04
     .576000000000D+05 -.428408384323D-07  .931480339552D+00 -.204890966415D-07
     .948298774325D+00  .211375000000D+03  .308006166525D+01 -.806676458455D-08
     .107504477993D-09  .100000000000D+01  .194900000000D+04  .000000000000D+00
     .240000000000D+01  .000000000000D+00  .372529029846D-08  .960000000000D+02
     .504060000000D+05  .400000000000D+01
31 17  5 14 16  0  0.0  .201160553843D-03 -.238742359215D-11  .000000000000D+00
     .270000000000D+02  .931562500000D+02  .428553565262D-08 -.306907802218D+01
     .490993261337D-05  .843514513690D-02  .838749110699D-05  .515370647049D+04
     .576000000000D+05 -.122934579849D-06  .903258535886D+00  .540167093277D-07
     .967331979294D+00  .222656250000D+03 -.257381121140D+00 -.774246536190D-08
     .921466954226D-10  .100000000000D+01  .194900000000D+04  .000000000000D+00
     .240000000000D+01  .000000000000D+00 -.135041773319D-07  .270000000000D+02
     .504060000000D+05  .400000000000D+01
25 17  5 14 15 59 44.0 -.387100037187D-03 -.659383658785D-11  .000000000000D+00
     .000000000000D+00  .303125000000D+02  .438911139554D-08  .229975502731D+01
     .137649476528D-05  .651976303197D-02  .252574682236D-05  .515359196472D+04
     .575840000000D+05 -.115483999252D-06  .192170394684D+01 -.875443220139D-07
     .976979147217D+00  .338250000000D+03  .807660471832D+00 -.810926635492D-08
     .207151485834D-10  .100000000000D+01  .194900000000D+04  .000000000000D+00
     .240000000000D+01  .000000000000D+00  .558793544769D-08  .000000000000D+00
     .525360000000D+05  .400000000000D+01
 3 17  5 14 15 59 44.0 -.100461766124D-03  .181898940355D-11  .000000000000D+00
     .200000000000D+01  .912500000000D+01  .475591238856D-08 -.285378453924D+01
     .577419996262D-06  .637460267171D-03  .568479299545D-05  .515373126984D+04
     .575840000000D+05  .335276126862D-07 -.122214636239D+01  .130385160446D-07
     .959429319236D+00  .269812500000D+03  .635643435272D-01 -.810676625078D-08
     .261796619166D-09  .100000000000D+01  .194900000000D+04  .000000000000D+00
     .240000000000D+01  .000000000000D+00  .232830643654D-08  .200000000000D+01
     .526560000000D+05  .400000000000D+01
 9 17  5 14 15 59 44.0  .363162718713D-03  .795807864051D-11  .000000000000D+00
     .600000000000D+01 -.140625000000D+01  .472519682341D-08 -.432441714876D-01
    -.339001417160D-06  .761013361625D-03  .847131013870D-05  .515363321686D+04
     .575840000000D+05  .409781932831D-07 -.185809347751D+00  .428408384323D-07
     .953924427261D+00  .209781250000D+03  .192257972275D+01 -.803462038848D-08
    -.349300264044D-09  .100000000000D+01  .194900000000D+04  .000000000000D+00
     .240000000000D+01  .000000000000D+00  .139698386192D-08  .600000000000D+01
     .569460000000D+05  .400000000000D+01
24 17  5 14 15 59 44.0 -.347946770489D-04 -.568434188608D-12  .000000000000D+00
     .100000000000D+01  .944062500000D+02  .475912680816D-08 -.202733752067D+01
     .477954745293D-05  .565462920349D-02  .906549394131D-05  .515369869232D+04
     .575840000000D+05  .633299350739D-07  .839136121296D+00 -.689178705215D-07
     .945674552375D+00  .196250000000D+03  .487195306577D+00 -.808605110220D-08
     .114290474943D-09  .100000000000D+01  .194900000000D+04  .000000000000D+00
     .240000000000D+01  .000000000000D+00  .279396772385D-08  .100000000000D+01
     .569460000000D+05  .400000000000D+01
